{
  "norad_id": 40315,
  "name": "COSMOS 2501 [GLONASS-K]",
  "history": [
    {
      "epoch": "2026-03-25T07:16:41.300256",
      "apogee_km": 19183.977582962158,
      "perigee_km": 19075.911065946228,
      "latitude_deg": -2.245496162602376,
      "longitude_deg": 112.61255584005266,
      "semi_major_axis_km": 25508.081324454193,
      "eccentricity": 0.00211828,
      "inclination_deg": 63.6158,
      "raan_deg": 193.2737,
      "arg_perigee_deg": 207.3153,
      "mean_anomaly_deg": 152.5805,
      "mean_motion_rev_day": 2.13101287
    }
  ]
}